STARLINK-2559_new
1 18298C 21036Y   21326.18279755  .00003819  00000-0  25594-3 0  3264
2 18298  53.0542 282.9263 0001854  66.3356  10.3733 15.06389067    14
STARLINK-2559_old
1 28298C 21036Y   21325.14848962  .00005163  00000-0  34586-3 0  3255
2 28298  53.0539 287.5694 0001915  66.9151 157.5611 15.06399059    17
